#aV2006  9 21  0  0   .00000000      96 DD+AD WGS84 FIT  NGA
## 1393 345600.00000000   900.00000000 53999  .0000000000000
+   29     1  2  3  4  5  6  7  8  9 10 11 13 14 15 16 17 18
+         19 20 21 22 23 24 25 26 27 28 29 30  0  0  0  0  0
+          0  0  0  0  0  0  0  0  0  0  0  0  0  0  0  0  0
+          0  0  0  0  0  0  0  0  0  0  0  0  0  0  0  0  0
+          0  0  0  0  0  0  0  0  0  0  0  0  0  0  0  0  0
++         0  0  0  0  0  0  0  0  0  0  0  0  0  0  0  0  0
++         0  0  0  0  0  0  0  0  0  0  0  0  0  0  0  0  0
++         0  0  0  0  0  0  0  0  0  0  0  0  0  0  0  0  0
++         0  0  0  0  0  0  0  0  0  0  0  0  0  0  0  0  0
++         0  0  0  0  0  0  0  0  0  0  0  0  0  0  0  0  0
%c cc cc ccc ccc cccc cccc cccc cccc ccccc ccccc ccccc ccccc
%c cc cc ccc ccc cccc cccc cccc cccc ccccc ccccc ccccc ccccc
%f  0.0000000  0.000000000  0.00000000000  0.000000000000000
%f  0.0000000  0.000000000  0.00000000000  0.000000000000000
%i    0    0    0    0      0      0      0      0         0
%i    0    0    0    0      0      0      0      0         0
/*      NGA, ST. LOUIS,MO.                                  
/*   EPHEMERIS COMPUTED FROM  3 DAYS OF DATA                
/* CCCCCCCCCCCCCCCCCCCCCCCCCCCCCCCCCCCCCCCCCCCCCCCCCCCCCCCCC
/* CCCCCCCCCCCCCCCCCCCCCCCCCCCCCCCCCCCCCCCCCCCCCCCCCCCCCCCCC
*  2006  9 21  8 30   .00000000                                                 
P  1 -15426.706370  -2680.951189 -21268.037485     77.953976                    
V  1  -7431.590274 -26357.383273   8571.287034       .021768                    
P  2  20690.657321  -7924.491839 -14717.332521     37.043373                    
V  2 -10117.589631  15557.368248 -23204.945701       .038589                    
P  3 -15890.133884   3034.039281  20916.111651    144.328575                    
V  3 -10885.214514 -24798.708148  -4311.977691       .729975                    
P  4  16197.499694   4205.289070 -20735.984132    313.209120                    
V  4 -16885.082982  20058.219640  -8788.422567       .056041                    
P  5  10419.851322 -13857.174308 -20304.274930    349.002965                    
V  5  25144.765734   3870.480118  10536.915297       .101461                    
P  6  -6455.271885 -25343.766624  -4251.820230    593.290984                    
V  6   5465.451792   3956.466228 -30562.897679      -.046908                    
P  7 -17622.969804 -13124.510349  15195.296483    524.208287                    
V  7  -4924.399242 -18327.390920 -22128.686846      -.045759                    
P  8   9043.282936  11951.865521  21755.664746    -80.402861                    
V  8 -19458.687764  20084.750672  -3339.024585      -.012979                    
P  9  15312.204444 -21478.780029  -2032.185679     37.026936                    
V  9   3515.294233    358.752581  31811.907522       .016458                    
P 10  24632.984497  -1750.908265  10084.891208     89.978283                    
V 10  12132.182413   4610.704394 -28258.489997       .005105                    
P 11 -11832.922918  23443.082754  -2959.633073    351.361603                    
V 11  -6239.165019    523.105661  30097.709060       .018587                    
P 13   5920.390086  25718.538510  -3283.866696     96.259735                    
V 13  -2864.406142  -3325.543785 -32072.197438       .034046                    
P 14 -14799.813514 -18086.065426 -12618.202329     -5.123580                    
V 14  -3560.692757 -15749.354057  26529.721598       .007821                    
P 15 -10119.252077 -11460.961721  21569.166932     -3.781154                    
V 15  19856.209077 -19388.700637  -1402.268917      -.037607                    
P 16 -25793.407824   -469.628930   6664.993526     75.072355                    
V 16  -7669.645908  -4109.972175 -30206.180632       .033816                    
P 17  15187.183632  18284.576003 -11965.319917     95.163066                    
V 17   2791.648237  15064.894523  26470.695221      -.012060                    
P 18 -10576.809174 -15992.716856  18636.132437   -249.410462                    
V 18  22995.350591   4051.395834  16315.303807      -.008327                    
P 19 -10717.699902  13877.046437  20033.780566     17.515749                    
V 19  -7946.950138 -23980.930830  12496.662208       .032421                    
P 20  -6200.363164  14349.589742 -21558.897454    -22.421140                    
V 20 -26684.263855  -5215.456324   4246.409257       .002226                    
P 21  -2998.438321 -17664.287587  19518.484085     53.607788                    
V 21  18126.520905 -17068.029655 -13261.985334       .018011                    
P 22 -21733.120533 -12168.978878   9418.194472    135.949856                    
V 22  12037.065539    176.673010  28463.842790       .030810                    
P 23  -2146.661190  22545.230398 -13811.949681    138.028288                    
V 23  -7727.395685 -15776.274513 -24895.400185       .002791                    
P 24  11773.880993   9610.869920 -21561.765682     37.693990                    
V 24 -19295.444788  20187.592839  -1238.601030       .029984                    
P 25 -18443.954500   3413.751807 -18464.002123    341.822374                    
V 25  12773.428937 -20660.671741 -16086.953583       .207902                    
P 26  10429.124697 -12018.051645  20736.552300   -262.728187                    
V 26   9154.043502  25770.031970  10686.479165      -.148455                    
P 27   1690.854652  19321.377673  18620.618234     68.931083                    
V 27 -14857.891542  16993.662078 -17147.836221       .019411                    
P 28  19321.101388  13375.746166  13007.128695     18.251589                    
V 28 -15964.372394  -1393.967938  25393.270181      -.008474                    
P 29  12186.205932  -9020.960967  21998.027871    -33.479259                    
V 29   9585.270797  25624.246928   5545.095212       .554931                    
P 30  -4273.817493 -16041.144659 -21051.729715     10.712493                    
V 30  25894.117606   3239.716601  -7721.036176       .012019                    
EOF
